CYGFM03                 
1 41891U 16078H   26108.55166554  .00025840  00000+0  34480-3 0  9999
2 41891  34.9408 267.5920 0006674 336.2502  23.7914 15.57057850519664
FENGYUN 3D              
1 43010U 17072A   26108.59587870 -.00000183  00000+0 -64625-4 0  9991
2 43010  99.0087  81.9558 0000962 172.7201 187.3988 14.19725809436537
NOAA 20 (JPSS-1)        
1 43013U 17073A   26108.58188979  .00000051  00000+0  44896-4 0  9991
2 43013  98.7738  48.5842 0002165  83.3643 276.7779 14.19546006436012
GOES 17                 
1 43226U 18022A   26108.56183791 -.00000177  00000+0  00000+0 0  9991
2 43226   0.7845  86.5211 0000830 258.6812 334.2479  1.00270617 29826
FENGYUN 2H              
1 43491U 18050A   26108.59520470 -.00000122  00000+0  00000+0 0  9998
2 43491   2.8769  79.7494 0001710 154.6649 265.7434  1.00274894 28847
METOP-C                 
1 43689U 18087A   26108.59045389  .00000065  00000+0  49685-4 0  9990
2 43689  98.6691 169.2703 0001224  47.6047 312.5234 14.21509752386368
GEO-KOMPSAT-2A          
1 43823U 18100A   26108.49281150  .00000000  00000+0  00000+0 0  9995
2 43823   0.0246  57.9549 0001731   5.0408  89.2791  1.00270931 27033
METEOR-M2 2             
1 44387U 19038A   26108.60531653 -.00000194  00000+0 -64198-4 0  9990
2 44387  98.9123  95.0204 0001399 139.6845 220.4438 14.24347790352811
ARKTIKA-M 1             
1 47719U 21016A   26108.17937168 -.00000080  00000+0  00000+0 0  9994
2 47719  63.2206  66.2812 7264714 269.6529  15.0038  2.00611233 37582
FENGYUN 3E              
1 49008U 21062A   26108.58654985 -.00000176  00000+0 -62396-4 0  9994
2 49008  98.7504 112.6572 0000424 251.6967 108.4163 14.19898050248121
GOES 18                 
1 51850U 22021A   26108.53030832  .00000101  00000+0  00000+0 0  9997
2 51850   0.0070  53.2230 0000447  41.6343 165.7153  1.00273250  5990
NOAA 21 (JPSS-2)        
1 54234U 22150A   26108.54568138  .00000009  00000+0  24802-4 0  9993
2 54234  98.7027  48.3476 0002186  37.3520 322.7808 14.19554106178082
METEOSAT-12 (MTG-I1)    
1 54743U 22170C   26108.57951797 -.00000003  00000+0  00000+0 0  9994
2 54743   0.7146  20.8773 0001118 321.8592  72.3476  1.00267570 12382
TIANMU-1 03             
1 55973U 23039A   26108.58337755  .00011511  00000+0  24140-3 0  9998
2 55973  97.5210 280.3051 0001912 330.3860  29.7280 15.45562502171620
TIANMU-1 04             
1 55974U 23039B   26108.59468160  .00015639  00000+0  32110-3 0  9996
2 55974  97.5146 279.4697 0002531 318.0192  42.0863 15.46106386171634
TIANMU-1 05             
1 55975U 23039C   26108.62627488  .00015469  00000+0  32417-3 0  9992
2 55975  97.5192 279.9861 0002192   1.5997 358.5258 15.45508125171611
TIANMU-1 06             
1 55976U 23039D   26108.59487978  .00011855  00000+0  24460-3 0  9991
2 55976  97.5199 280.5311 0002332 350.5785   9.5420 15.46031351171634
FENGYUN 3G              
1 56232U 23055A   26108.59331941  .00024309  00000+0  40200-3 0  9991
2 56232  49.9929 293.3001 0005743 289.2528  70.7818 15.52011507170742
METEOR-M2 3             
1 57166U 23091A   26108.58621622 -.00000012  00000+0  13537-4 0  9995
2 57166  98.6135 164.7687 0003716   1.8313 358.2879 14.24041592146039
TIANMU-1 07             
1 57399U 23101A   26107.64825512  .00004317  00000+0  15401-3 0  9997
2 57399  97.2649 159.7182 0003133  50.5270 309.6248 15.29397698152395
TIANMU-1 08             
1 57400U 23101B   26108.59714944  .00000159  00000+0  81591-5 0  9996
2 57400  97.2636 160.4226 0003049 356.5714   3.5505 15.29191772152537
TIANMU-1 09             
1 57401U 23101C   26108.58104198  .00004534  00000+0  16213-3 0  9998
2 57401  97.2592 159.8555 0003043  36.5899 323.5549 15.29300092152539
TIANMU-1 10             
1 57402U 23101D   26108.61377733  .00004638  00000+0  16608-3 0  9993
2 57402  97.2671 160.8755 0003735  10.6404 349.4915 15.29236474152531
FENGYUN 3F              
1 57490U 23111A   26108.57175094  .00000026  00000+0  32674-4 0  9991
2 57490  98.6861 179.6832 0000798 104.9482 255.1783 14.19928263140408
ARKTIKA-M 2             
1 58584U 23198A   26105.45009400  .00000213  00000+0  00000+0 0  9993
2 58584  63.2109 161.3400 6886040 267.6312  18.8487  2.00607933 17067
TIANMU-1 11             
1 58645U 23205A   26108.60501369  .00004732  00000+0  18462-3 0  9996
2 58645  97.3490 131.1127 0008181 203.1866 156.9005 15.26375087128430
TIANMU-1 12             
1 58646U 23205B   26108.57358520  .00004800  00000+0  18760-3 0  9999
2 58646  97.3479 130.8508 0007080 182.8733 177.2466 15.26317696128417
TIANMU-1 13             
1 58647U 23205C   26108.60314773  .00004219  00000+0  16497-3 0  9995
2 58647  97.3506 131.1363 0007997 165.6655 194.4812 15.26367538128417
TIANMU-1 14             
1 58648U 23205D   26108.58839413  .00004961  00000+0  19360-3 0  9992
2 58648  97.3441 130.3547 0008551 170.8748 189.2647 15.26342565128410
TIANMU-1 19             
1 58660U 23208A   26108.61812358  .00006482  00000+0  22147-3 0  9999
2 58660  97.4436 224.6815 0005825 154.6974 205.4553 15.30625494128211
TIANMU-1 20             
1 58661U 23208B   26108.57154418  .00007619  00000+0  25037-3 0  9995
2 58661  97.4377 225.2087 0007714 166.3328 193.8124 15.31815007128290
TIANMU-1 21             
1 58662U 23208C   26108.58119580  .00009388  00000+0  28788-3 0  9999
2 58662  97.4435 227.6497 0007778 161.0971 199.0562 15.33961256128422
TIANMU-1 22             
1 58663U 23208D   26108.58118499  .00005960  00000+0  20673-3 0  9995
2 58663  97.4431 224.6276 0004045 171.0342 189.0972 15.30180036128215
TIANMU-1 15             
1 58700U 24004A   26108.65116403  .00005282  00000+0  20586-3 0  9993
2 58700  97.4673 294.8544 0006846 186.4727 173.6424 15.26377442126695
TIANMU-1 16             
1 58701U 24004B   26108.63369640  .00005107  00000+0  19897-3 0  9994
2 58701  97.4618 294.1322 0005257 186.1093 174.0082 15.26415111126691
TIANMU-1 17             
1 58702U 24004C   26108.61696759  .00005271  00000+0  20617-3 0  9991
2 58702  97.4647 294.5830 0005028 191.2894 168.8232 15.26264794126680
TIANMU-1 18             
1 58703U 24004D   26108.60189159  .00005023  00000+0  19598-3 0  9993
2 58703  97.4665 294.7896 0003940 180.4104 179.7132 15.26379640126687
INSAT-3DS               
1 58990U 24033A   26108.59581137 -.00000151  00000+0  00000+0 0  9995
2 58990   0.0717  84.6781 0001810 295.2665 123.3488  1.00271331 46475
METEOR-M2 4             
1 59051U 24039A   26108.60362588 -.00000011  00000+0  14571-4 0  9997
2 59051  98.6966  68.6668 0006897 351.9357   8.1708 14.22423007110796
GOES 19                 
1 60133U 24119A   26108.46433527 -.00000243  00000+0  00000+0 0  9999
2 60133   0.0042 236.0041 0000447 205.1908 217.3575  1.00271015  6369
FENGYUN 3H              
1 65815U 25219A   26108.56762417  .00000027  00000+0  32990-4 0  9994
2 65815  98.6734  50.5081 0000709  96.9586 263.1672 14.19942433 28920
OSCAR 7 (AO-7)          
1 07530U 74089B   26108.28342580 -.00000046  00000+0  73395-6 0  9995
2 07530 101.9940 120.8992 0011900 244.6506 126.2217 12.53697173353017
PHASE 3B (AO-10)        
1 14129U 83058B   26107.66943027 -.00000005  00000+0  00000+0 0  9998
2 14129  25.8982 229.6657 6032508  98.9624 329.6785  2.05870713294246
UOSAT 2 (UO-11)         
1 14781U 84021B   26108.48142609  .00000818  00000+0  89149-4 0  9998
2 14781  97.8011  74.7476 0008377  32.0438 328.1288 14.90637477248238
LUSAT (LO-19)           
1 20442U 90005G   26108.32008422  .00000075  00000+0  43526-4 0  9999
2 20442  98.8898 128.4644 0012033  27.0158 333.1650 14.34103899893817
EYESAT A (AO-27)        
1 22825U 93061C   26108.14466676  .00000069  00000+0  43174-4 0  9992
2 22825  98.6914 175.5698 0007227 277.3098  82.7263 14.30925710698411
ITAMSAT (IO-26)         
1 22826U 93061D   26108.42155011  .00000070  00000+0  43446-4 0  9996
2 22826  98.6863 175.7582 0007765 257.2725 102.7591 14.31351035698769
RADIO ROSTO (RS15)      
1 23439U 94085A   26108.51691922 -.00000049  00000+0 -18207-3 0  9994
2 23439  64.8191  39.7176 0154188  14.7185 345.8155 11.27583786289174
JAS-2 (FO-29)           
1 24278U 96046B   26108.34878684 -.00000021  00000+0  17623-4 0  9999
2 24278  98.5313 325.3915 0348853 251.6743 104.6160 13.53271291465075
TECHSAT 1B (GO-32)      
1 25397U 98043D   26108.49808139  .00000022  00000+0  29691-4 0  9993
2 25397  99.0060  99.7571 0002034  55.4505 304.6865 14.24416321442834
ISS (ZARYA)             
1 25544U 98067A   26108.52212400  .00008659  00000+0  16614-3 0  9991
2 25544  51.6329 235.3932 0006584 322.2115  37.8411 15.48816702562508
PCSAT (NO-44)           
1 26931U 01043C   26108.51085379  .00000092  00000+0  65111-4 0  9992
2 26931  67.0522  38.6187 0006622 264.2743  95.7604 14.31932230281901
SAUDISAT 1C (SO-50)     
1 27607U 02058C   26108.00292272  .00000560  00000+0  84087-4 0  9999
2 27607  64.5521 315.1755 0075545 273.4180  85.8287 14.82912319255533
CUTE-1 (CO-55)          
1 27844U 03031E   26108.25535867  .00000198  00000+0  10489-3 0  9992
2 27844  98.6763 117.5643 0009610   7.2916 352.8401 14.24297506183144
CUBESAT XI-IV (CO-57)   
1 27848U 03031J   26108.49500719  .00000165  00000+0  91731-4 0  9994
2 27848  98.6794 117.5613 0009893  24.4723 335.6923 14.23588073182888
MOZHAETS 4 (RS22)       
1 27939U 03042A   26108.66795498  .00000288  00000+0  52824-4 0  9992
2 27939  98.3458 291.3499 0012549  96.6065  34.3139 14.73356300206787
CUBESAT XI-V            
1 28895U 05043F   26107.85905874  .00000934  00000+0  15529-3 0  9996
2 28895  98.2908 262.2443 0014783  41.4821 318.7505 14.72469771 92879
CUTE-1.7+APD II (CO-65) 
1 32785U 08021C   26108.57545739  .00003877  00000+0  25016-3 0  9999
2 32785  97.8250  88.7941 0007622 223.5131 136.5496 15.08877452976204
SEEDS II (CO-66)        
1 32791U 08021J   26108.22872766  .00012112  00000+0  41088-3 0  9990
2 32791  97.7527 103.3650 0004417 130.7985 229.3639 15.30679504978118
